{
"type": "FeatureCollection",
"name": "checkpoints_all",
"crs": { "type": "name", "properties": { "name": "urn:ogc:def:crs:OGC:1.3:CRS84" } },
"features": [
{ "type": "Feature", "properties": { "object_id": 0, "name_en": "Kerrem Shalom", "name_fr": "Kerem Shalom", "name_es": "Kerem Shalom", "name_he": "כרם שלום", "name_ar": "كرم أبو سالم", "type_en": "Last Checkpoint before Israel", "type_he": "מחסום אחרון לפני הכניסה לישראל", "type_ar": "آخر حاجز قبل الدخول لإسرائيل", "staffing_en": "Permanently staffed\/ goods", "staffing_he": "מאויש בקביעות \/ סחורות", "staffing_ar": "معزز بصورة دائمة \/ بضائع", "district_en": "Gaza Strip", "district_he": "רצועת עזה", "district_ar": "רצועת עזה" }, "geometry": { "type": "Point", "coordinates": [ 34.27155, 31.22443 ] } },
{ "type": "Feature", "properties": { "object_id": 1, "name_en": "a-Zaitun\/Ras Abu Sbitan", "name_fr": "a-Zaitun\/Ras Abu Sbitan", "name_es": "a-Zaitun\/Ras Abu Sbitan", "name_he": "א-זייתון\/ראס אבו סביתאן", "name_ar": "الزيتون\/راس أبو سبيتان", "type_en": "Last Checkpoint before Israel", "type_he": "מחסום אחרון לפני הכניסה לישראל", "type_ar": "آخر حاجز قبل الدخول لإسرائيل", "staffing_en": "Permanently staffed", "staffing_he": "מאויש בקביעות", "staffing_ar": "معزز بصورة دائمة", "district_en": "East Jerusalem", "district_he": "מזרח ירושלים", "district_ar": "القدس الشرقية" }, "geometry": { "type": "Point", "coordinates": [ 35.26227, 31.78313 ] } },
{ "type": "Feature", "properties": { "object_id": 2, "name_en": "a-Za’ayem - West Bank", "name_fr": "a-Za’ayem - Cisjordanie", "name_es": "a-Zaayem - Cisjordania", "name_he": "א-זעיים - הגדה", "name_ar": "الزعيم- الضفة", "type_en": "Last Checkpoint before Israel", "type_he": "מחסום אחרון לפני הכניסה לישראל", "type_ar": "آخر حاجز قبل الدخول لإسرائيل", "staffing_en": "Permanently staffed", "staffing_he": "מאויש בקביעות", "staffing_ar": "معزز بصورة دائمة", "district_en": "East Jerusalem", "district_he": "מזרח ירושלים", "district_ar": "القدس الشرقية" }, "geometry": { "type": "Point", "coordinates": [ 35.26367, 31.78283 ] } },
{ "type": "Feature", "properties": { "object_id": 3, "name_en": "a-Za’ayem - Jerusalem", "name_fr": "a-Za’ayem - Jérusalem", "name_es": "a-Zaayem - Jerusalén", "name_he": "א-זעיים - ירושלים", "name_ar": "الزعيم- القدس", "type_en": "Last Checkpoint before Israel", "type_he": "מחסום אחרון לפני הכניסה לישראל", "type_ar": "آخر حاجز قبل الدخول لإسرائيل", "staffing_en": "Permanently staffed\/ goods", "staffing_he": "מאויש בקביעות \/ סחורות", "staffing_ar": "معزز بصورة دائمة \/ بضائع", "district_en": "East Jerusalem", "district_he": "מזרח ירושלים", "district_ar": "القدس الشرقية" }, "geometry": { "type": "Point", "coordinates": [ 35.26337, 31.78293 ] } },
{ "type": "Feature", "properties": { "object_id": 4, "name_en": "a-Taybah \/ Sha'ar Efrayim", "name_fr": "a-Taybah \/ Sha'ar Efrayim", "name_es": "a-Taybah \/ Shaar Efrayim", "name_he": "א-טייבה \/ שער אפריים", "name_ar": "الطيبة \/ شاعر إفرايم", "type_en": "Last Checkpoint before Israel", "type_he": "מחסום אחרון לפני הכניסה לישראל", "type_ar": "آخر حاجز قبل الدخول لإسرائيل", "staffing_en": "Permanently staffed\/ goods", "staffing_he": "מאויש בקביעות \/ סחורות", "staffing_ar": "معزز بصورة دائمة \/ بضائع", "district_en": "Tulkarm", "district_he": "טול-כרם", "district_ar": "طولكرم" }, "geometry": { "type": "Point", "coordinates": [ 35.01317, 32.29223 ] } },
{ "type": "Feature", "properties": { "object_id": 5, "name_en": "Irtah \/ Sha'ar Efrayim", "name_fr": "Irtah \/ Sha'ar Efrayim", "name_es": "Irtah \/ Shaar Efraim", "name_he": "אירתאח \/ שער אפריים", "name_ar": "إرتاح \/ شاعر إفرايم", "type_en": "Last Checkpoint before Israel", "type_he": "מחסום אחרון לפני הכניסה לישראל", "type_ar": "آخر حاجز قبل الدخول لإسرائيل", "staffing_en": "Permanently staffed", "staffing_he": "מאויש בקביעות", "staffing_ar": "معزز بصورة دائمة", "district_en": "Tulkarm", "district_he": "טול-כרם", "district_ar": "طولكرم" }, "geometry": { "type": "Point", "coordinates": [ 35.01527, 32.29153 ] } },
{ "type": "Feature", "properties": { "object_id": 6, "name_en": "al-Jab’a (near Surif)", "name_fr": "al-Jab’a (près de Surif)", "name_es": "al-Jaba (Cerca de Surif)", "name_he": "אל-ג'בעה (ליד סוריף)", "name_ar": "الجبعة (قرب صوريف)", "type_en": "Last Checkpoint before Israel", "type_he": "מחסום אחרון לפני הכניסה לישראל", "type_ar": "آخر حاجز قبل الدخول لإسرائيل", "staffing_en": "Permanently staffed", "staffing_he": "מאויש בקביעות", "staffing_ar": "معزز بصورة دائمة", "district_en": "Bethlehem", "district_he": "בית לחם", "district_ar": "بيت لحم" }, "geometry": { "type": "Point", "coordinates": [ 35.05377, 31.66954 ] } },
{ "type": "Feature", "properties": { "object_id": 7, "name_en": "al-Walajah \/ Malha \/ ‘Ein Yalu", "name_fr": "al-Walajah \/ Malha \/ ‘Ein Yalu", "name_es": "al-Walajah \/ Malha \/ Ein Yalu", "name_he": "אל-ולג'ה\/מלחה\/עין יאלו", "name_ar": "الولجة\/ المالحة\/ عين يالو", "type_en": "Last Checkpoint before Israel", "type_he": "מחסום אחרון לפני הכניסה לישראל", "type_ar": "آخر حاجز قبل الدخول لإسرائيل", "staffing_en": "Permanently staffed", "staffing_he": "מאויש בקביעות", "staffing_ar": "معزز بصورة دائمة", "district_en": "Bethlehem", "district_he": "בית לחם", "district_ar": "بيت لحم" }, "geometry": { "type": "Point", "coordinates": [ 35.14857, 31.73593 ] } },
{ "type": "Feature", "properties": { "object_id": 8, "name_en": "al-Kafriyat", "name_fr": "al-Kafriyat", "name_es": "al-Kafriyat", "name_he": "אל-כפריאת", "name_ar": "الكفريات", "type_en": "Last Checkpoint before Israel", "type_he": "מחסום אחרון לפני הכניסה לישראל", "type_ar": "آخر حاجز قبل الدخول لإسرائيل", "staffing_en": "Permanently staffed", "staffing_he": "מאויש בקביעות", "staffing_ar": "معزز بصورة دائمة", "district_en": "Tulkarm", "district_he": "טול-כרם", "district_ar": "طولكرم" }, "geometry": { "type": "Point", "coordinates": [ 35.03817, 32.27593 ] } },
{ "type": "Feature", "properties": { "object_id": 9, "name_en": "a-Sawahrah a-Sharqiyah", "name_fr": "a-Sawahrah a-Sharqiyah", "name_es": "a-Sawahrah a-Sharkíah", "name_he": "א-סוואחרה א-שרקייה", "name_ar": "السواحرة الشرقية", "type_en": "Last Checkpoint before Israel", "type_he": "מחסום אחרון לפני הכניסה לישראל", "type_ar": "آخر حاجز قبل الدخول لإسرائيل", "staffing_en": "Permanently staffed", "staffing_he": "מאויש בקביעות", "staffing_ar": "معزز بصورة دائمة", "district_en": "East Jerusalem", "district_he": "מזרח ירושלים", "district_ar": "القدس الشرقية" }, "geometry": { "type": "Point", "coordinates": [ 35.26057, 31.74823 ] } },
{ "type": "Feature", "properties": { "object_id": 10, "name_en": "Erez", "name_fr": "Erez", "name_es": "Erez", "name_he": "ארז", "name_ar": "إيرز", "type_en": "Last Checkpoint before Israel", "type_he": "מחסום אחרון לפני הכניסה לישראל", "type_ar": "آخر حاجز قبل الدخول لإسرائيل", "staffing_en": "Permanently staffed", "staffing_he": "מאויש בקביעות", "staffing_ar": "معزز بصورة دائمة", "district_en": "Gaza Strip", "district_he": "רצועת עזה", "district_ar": "רצועת עזה" }, "geometry": { "type": "Point", "coordinates": [ 34.54408, 31.55874 ] } },
{ "type": "Feature", "properties": { "object_id": 11, "name_en": "a-Sheikh Sa'ed", "name_fr": "a-Sheikh Sa'ed", "name_es": "a-Sheikh Saed", "name_he": "א-שיח' סעד", "name_ar": "الشيخ سعد", "type_en": "Last Checkpoint before Israel", "type_he": "מחסום אחרון לפני הכניסה לישראל", "type_ar": "آخر حاجز قبل الدخول لإسرائيل", "staffing_en": "Permanently staffed", "staffing_he": "מאויש בקביעות", "staffing_ar": "معزز بصورة دائمة", "district_en": "East Jerusalem", "district_he": "מזרח ירושלים", "district_ar": "القدس الشرقية" }, "geometry": { "type": "Point", "coordinates": [ 35.25187, 31.73953 ] } },
{ "type": "Feature", "properties": { "object_id": 12, "name_en": "Baqah al-Gharbiyah \/ Nazlat ‘Isa", "name_fr": "Baqah al-Gharbiyah \/ Nazlat ‘Isa", "name_es": "Bakah al-Gharbiyah \/ Nazlat Isa", "name_he": "באקה אל-ר'רבייה \/ נזלת עיסא", "name_ar": "باقة الغربية \/ نزلة عيسى", "type_en": "Last Checkpoint before Israel", "type_he": "מחסום אחרון לפני הכניסה לישראל", "type_ar": "آخر حاجز قبل الدخول لإسرائيل", "staffing_en": "Permanently staffed", "staffing_he": "מאויש בקביעות", "staffing_ar": "معزز بصورة دائمة", "district_en": "Tulkarm", "district_he": "טול-כרם", "district_ar": "طولكرم" }, "geometry": { "type": "Point", "coordinates": [ 35.05517, 32.41213 ] } },
{ "type": "Feature", "properties": { "object_id": 13, "name_en": "Bet Yatir\/al-Asaifer", "name_fr": "Bet Yatir\/al-Asaifer", "name_es": "Bet Yatir\/al-Asaifer", "name_he": "בית יתיר\/אל-אסייפר", "name_ar": "بيت يتير\/الأصيفر", "type_en": "Last Checkpoint before Israel", "type_he": "מחסום אחרון לפני הכניסה לישראל", "type_ar": "آخر حاجز قبل الدخول لإسرائيل", "staffing_en": "Permanently staffed", "staffing_he": "מאויש בקביעות", "staffing_ar": "معزز بصورة دائمة", "district_en": "Hebron", "district_he": "חברון", "district_ar": "الخليل" }, "geometry": { "type": "Point", "coordinates": [ 35.11216, 31.37244 ] } },
{ "type": "Feature", "properties": { "object_id": 14, "name_en": "Bet She’an-Bardala \/ The Jordan Valley", "name_fr": "Bet She’an-Bardala \/ Vallée du Jourdain", "name_es": "Beit Shean-Bardala \/ Valle del Jordán", "name_he": "בית שאן-ברדלה\/הבקעה", "name_ar": "بيسان- بردلة \/ الأغوار", "type_en": "Last Checkpoint before Israel", "type_he": "מחסום אחרון לפני הכניסה לישראל", "type_ar": "آخر حاجز قبل الدخول لإسرائيل", "staffing_en": "Permanently staffed\/ goods", "staffing_he": "מאויש בקביעות \/ סחורות", "staffing_ar": "معزز بصورة دائمة \/ بضائع", "district_en": "Jenin", "district_he": "ג'נין", "district_ar": "جنين" }, "geometry": { "type": "Point", "coordinates": [ 35.49607, 32.40113 ] } },
{ "type": "Feature", "properties": { "object_id": 15, "name_en": "Jaljulyeh \/ HaPerot (Fruit) \/ 109", "name_fr": "Jaljulyeh \/ HaPerot (Fruit) \/ 109", "name_es": "Jaljulyeh \/ HaPerot (Fruit) \/ 109", "name_he": "ג'לג'וליה\/הפירות 109", "name_ar": "جلجولية\/هبيروت 109", "type_en": "Last Checkpoint before Israel", "type_he": "מחסום אחרון לפני הכניסה לישראל", "type_ar": "آخر حاجز قبل الدخول لإسرائيل", "staffing_en": "Permanently staffed", "staffing_he": "מאויש בקביעות", "staffing_ar": "معزز بصورة دائمة", "district_en": "Qalqiliya", "district_he": "קלקיליה", "district_ar": "قلقيلية" }, "geometry": { "type": "Point", "coordinates": [ 34.99847, 32.18553 ] } },
{ "type": "Feature", "properties": { "object_id": 16, "name_en": "Jalameh \/ Mqeibleh", "name_fr": "Jalameh \/ Mqeibleh", "name_es": "Jalameh \/ Mqeibleh", "name_he": "ג'למה\/מוקיבלה", "name_ar": "الجلمة \/ مقيبلة", "type_en": "Last Checkpoint before Israel", "type_he": "מחסום אחרון לפני הכניסה לישראל", "type_ar": "آخر حاجز قبل الدخول لإسرائيل", "staffing_en": "Permanently staffed\/ goods", "staffing_he": "מאויש בקביעות \/ סחורות", "staffing_ar": "معزز بصورة دائمة \/ بضائع", "district_en": "Jenin", "district_he": "ג'נין", "district_ar": "جنين" }, "geometry": { "type": "Point", "coordinates": [ 35.30797, 32.51033 ] } },
{ "type": "Feature", "properties": { "object_id": 17, "name_en": "The Tunnels", "name_fr": "Les Tunnels", "name_es": "Los Túneles", "name_he": "המנהרות", "name_ar": "الأنفاق\/\"طريق الآباء\"", "type_en": "Last Checkpoint before Israel", "type_he": "מחסום אחרון לפני הכניסה לישראל", "type_ar": "آخر حاجز قبل الدخول لإسرائيل", "staffing_en": "Permanently staffed", "staffing_he": "מאויש בקביעות", "staffing_ar": "معزز بصورة دائمة", "district_en": "Bethlehem", "district_he": "בית לחם", "district_ar": "بيت لحم" }, "geometry": { "type": "Point", "coordinates": [ 35.17027, 31.70573 ] } },
{ "type": "Feature", "properties": { "object_id": 18, "name_en": "Wadi Fukin\/Betar Illit\/Tzur Hadassah", "name_fr": "Wadi Fukin\/Betar Illit\/Tzur Hadassah", "name_es": "Wadi Fukin\/Betar Illit\/Tzur Hadassah", "name_he": "ואדי פוכין\/ביתר עלית\/צור הדסה", "name_ar": "وادي فوكين\/بيتار عيليت\/تسور هداسا", "type_en": "Last Checkpoint before Israel", "type_he": "מחסום אחרון לפני הכניסה לישראל", "type_ar": "آخر حاجز قبل الدخول لإسرائيل", "staffing_en": "Permanently staffed", "staffing_he": "מאויש בקביעות", "staffing_ar": "معزز بصورة دائمة", "district_en": "Bethlehem", "district_he": "בית לחם", "district_ar": "بيت لحم" }, "geometry": { "type": "Point", "coordinates": [ 35.12137, 31.71614 ] } },
{ "type": "Feature", "properties": { "object_id": 19, "name_en": "Zabdah \/ Barta’ah \/ Rihan", "name_fr": "Zabdah \/ Barta’ah \/ Rihan", "name_es": "Zabdah \/ Bartaah \/ Rihan", "name_he": "זבדה \/ ברטעה \/ ריחאן", "name_ar": "زبدة \/ برطعة \/ ريحان", "type_en": "Last Checkpoint before Israel", "type_he": "מחסום אחרון לפני הכניסה לישראל", "type_ar": "آخر حاجز قبل الدخول لإسرائيل", "staffing_en": "Permanently staffed\/ goods", "staffing_he": "מאויש בקביעות \/ סחורות", "staffing_ar": "معزز بصورة دائمة \/ بضائع", "district_en": "Jenin", "district_he": "ג'נין", "district_ar": "جنين" }, "geometry": { "type": "Point", "coordinates": [ 35.11717, 32.45043 ] } },
{ "type": "Feature", "properties": { "object_id": 20, "name_en": "Hizma", "name_fr": "Hizma", "name_es": "Hizma", "name_he": "חיזמה", "name_ar": "حزمة", "type_en": "Last Checkpoint before Israel", "type_he": "מחסום אחרון לפני הכניסה לישראל", "type_ar": "آخر حاجز قبل الدخول لإسرائيل", "staffing_en": "Permanently staffed", "staffing_he": "מאויש בקביעות", "staffing_ar": "معزز بصورة دائمة", "district_en": "East Jerusalem", "district_he": "מזרח ירושלים", "district_ar": "القدس الشرقية" }, "geometry": { "type": "Point", "coordinates": [ 35.25277, 31.82833 ] } },
{ "type": "Feature", "properties": { "object_id": 21, "name_en": "Tulkarem \/ al-Kafriyat", "name_fr": "Tulkarem \/ al-Kafriyat", "name_es": "Tulkarem \/ al-Kafriyat", "name_he": "טול-כרם \/ אל-כפריאת", "name_ar": "طولكرم\/ الكفريات", "type_en": "Last Checkpoint before Israel", "type_he": "מחסום אחרון לפני הכניסה לישראל", "type_ar": "آخر حاجز قبل الدخول لإسرائيل", "staffing_en": "Permanently staffed", "staffing_he": "מאויש בקביעות", "staffing_ar": "معزز بصورة دائمة", "district_en": "Tulkarm", "district_he": "טול-כרם", "district_ar": "طولكرم" }, "geometry": { "type": "Point", "coordinates": [ 35.03897, 32.28033 ] } },
{ "type": "Feature", "properties": { "object_id": 22, "name_en": "Tulkarm Factories", "name_fr": "Usines de Tulkarem", "name_es": "Fábricas de Tulkarem", "name_he": "טול-כרם המפעלים", "name_ar": "طولكرم المصانع", "type_en": "Last Checkpoint before Israel", "type_he": "מחסום אחרון לפני הכניסה לישראל", "type_ar": "آخر حاجز قبل الدخول لإسرائيل", "staffing_en": "Permanently staffed", "staffing_he": "מאויש בקביעות", "staffing_ar": "معزز بصورة دائمة", "district_en": "Tulkarm", "district_he": "טול-כרם", "district_ar": "طولكرم" }, "geometry": { "type": "Point", "coordinates": [ 35.01547, 32.31203 ] } },
{ "type": "Feature", "properties": { "object_id": 23, "name_en": "Turah \/ Dhaher al-Malih", "name_fr": "Turah \/ Dhaher al-Malih", "name_es": "Turah \/ Dhaher al-Malih", "name_he": "טורה \/ דהר אל-מאלח", "name_ar": "طورة \/ ظهر المالح", "type_en": "Last Checkpoint before Israel", "type_he": "מחסום אחרון לפני הכניסה לישראל", "type_ar": "آخر حاجز قبل الدخول لإسرائيل", "staffing_en": "Permanently staffed", "staffing_he": "מאויש בקביעות", "staffing_ar": "معزز بصورة دائمة", "district_en": "Jenin", "district_he": "ג'נין", "district_ar": "جنين" }, "geometry": { "type": "Point", "coordinates": [ 35.16207, 32.46953 ] } },
{ "type": "Feature", "properties": { "object_id": 24, "name_en": "Kafr Qassem \/ Kafr 'Ein", "name_fr": "Kafr Qassem \/ Kafr 'Ein", "name_es": "Kafr Qassem \/ Kafr Ein", "name_he": "כפר קאסם \/ כפר עין", "name_ar": "كفر قاسم\/كفر عين", "type_en": "Last Checkpoint before Israel", "type_he": "מחסום אחרון לפני הכניסה לישראל", "type_ar": "آخر حاجز قبل الدخول لإسرائيل", "staffing_en": "Permanently staffed", "staffing_he": "מאויש בקביעות", "staffing_ar": "معزز بصورة دائمة", "district_en": "Qalqiliya", "district_he": "קלקיליה", "district_ar": "قلقيلية" }, "geometry": { "type": "Point", "coordinates": [ 35.00737, 32.10803 ] } },
{ "type": "Feature", "properties": { "object_id": 25, "name_en": "Mazmuriyeh \/ a-Nu’man", "name_fr": "Mazmuriyeh \/ a-Nu’man", "name_es": "Mazmuriyeh \/ a-Numan", "name_he": "מזמוריה \/ א-נועמאן", "name_ar": "مزمورية\/ النعمان", "type_en": "Last Checkpoint before Israel", "type_he": "מחסום אחרון לפני הכניסה לישראל", "type_ar": "آخر حاجز قبل الدخول لإسرائيل", "staffing_en": "Permanently staffed", "staffing_he": "מאויש בקביעות", "staffing_ar": "معزز بصورة دائمة", "district_en": "East Jerusalem", "district_he": "מזרח ירושלים", "district_ar": "القدس الشرقية" }, "geometry": { "type": "Point", "coordinates": [ 35.24517, 31.71303 ] } },
{ "type": "Feature", "properties": { "object_id": 26, "name_en": "Shu’afat Refugee Camp", "name_fr": "Camp de réfugiés de Shu’afat", "name_es": "Campo de refugiados Shuafat", "name_he": "מחנה הפליטים שועפאט", "name_ar": "مخيم اللاجئين شعفاط", "type_en": "Last Checkpoint before Israel", "type_he": "מחסום אחרון לפני הכניסה לישראל", "type_ar": "آخر حاجز قبل الدخول لإسرائيل", "staffing_en": "Permanently staffed", "staffing_he": "מאויש בקביעות", "staffing_ar": "معزز بصورة دائمة", "district_en": "East Jerusalem", "district_he": "מזרח ירושלים", "district_ar": "القدس الشرقية" }, "geometry": { "type": "Point", "coordinates": [ 35.24247, 31.80993 ] } },
{ "type": "Feature", "properties": { "object_id": 27, "name_en": "Checkpoint 300", "name_fr": "Poste de contrôle 300", "name_es": "Puesto de control 300", "name_he": "מחסום 300", "name_ar": "حاجز 300", "type_en": "Last Checkpoint before Israel", "type_he": "מחסום אחרון לפני הכניסה לישראל", "type_ar": "آخر حاجز قبل الدخول لإسرائيل", "staffing_en": "Permanently staffed", "staffing_he": "מאויש בקביעות", "staffing_ar": "معزز بصورة دائمة", "district_en": "Bethlehem", "district_he": "בית לחם", "district_ar": "بيت لحم" }, "geometry": { "type": "Point", "coordinates": [ 35.20427, 31.72383 ] } },
{ "type": "Feature", "properties": { "object_id": 28, "name_en": "Meitar", "name_fr": "Meitar", "name_es": "Meitar", "name_he": "מיתר", "name_ar": "ميتار", "type_en": "Last Checkpoint before Israel", "type_he": "מחסום אחרון לפני הכניסה לישראל", "type_ar": "آخر حاجز قبل الدخول لإسرائيل", "staffing_en": "Permanently staffed", "staffing_he": "מאויש בקביעות", "staffing_ar": "معزز بصورة دائمة", "district_en": "Hebron", "district_he": "חברון", "district_ar": "الخليل" }, "geometry": { "type": "Point", "coordinates": [ 34.93486, 31.34524 ] } },
{ "type": "Feature", "properties": { "object_id": 29, "name_en": "Maccabim \/ Beit Sira", "name_fr": "Maccabim \/ Beit Sira", "name_es": "Maccabim \/ Beit Sira", "name_he": "מכבים\/בית סירא", "name_ar": "مكابيم \/ بيت سيرا", "type_en": "Last Checkpoint before Israel", "type_he": "מחסום אחרון לפני הכניסה לישראל", "type_ar": "آخر حاجز قبل الدخول لإسرائيل", "staffing_en": "Permanently staffed", "staffing_he": "מאויש בקביעות", "staffing_ar": "معزز بصورة دائمة", "district_en": "Ramallah and al-Bira", "district_he": "רמאללה", "district_ar": "رام الله والبيرة" }, "geometry": { "type": "Point", "coordinates": [ 35.04237, 31.89793 ] } },
{ "type": "Feature", "properties": { "object_id": 30, "name_en": "Cliff Hotel (Surkhi Qunbar)", "name_fr": "Hôtel Cliff (Surkhi Qunbar)", "name_es": "Hotel Cliff (Surkhi Kunbar)", "name_he": "מלון קליף (סורח'י קונבר)", "name_ar": "فندق كليف \/ (سرخي قنبر)", "type_en": "Last Checkpoint before Israel", "type_he": "מחסום אחרון לפני הכניסה לישראל", "type_ar": "آخر حاجز قبل الدخول لإسرائيل", "staffing_en": "Permanently staffed", "staffing_he": "מאויש בקביעות", "staffing_ar": "معزز بصورة دائمة", "district_en": "East Jerusalem", "district_he": "מזרח ירושלים", "district_ar": "القدس الشرقية" }, "geometry": { "type": "Point", "coordinates": [ 35.25217, 31.76603 ] } },
{ "type": "Feature", "properties": { "object_id": 31, "name_en": "Bitunya commercial crossing", "name_fr": "Passage de marchandises de Bitunya", "name_es": "Cruce comercial de Bitunya", "name_he": "מעבר ביתוניא המסחרי", "name_ar": "ممر بيتونيا التجاري", "type_en": "Last Checkpoint before Israel", "type_he": "מחסום אחרון לפני הכניסה לישראל", "type_ar": "آخر حاجز قبل الدخول لإسرائيل", "staffing_en": "Permanently staffed\/ goods", "staffing_he": "מאויש בקביעות \/ סחורות", "staffing_ar": "معزز بصورة دائمة \/ بضائع", "district_en": "East Jerusalem", "district_he": "מזרח ירושלים", "district_ar": "القدس الشرقية" }, "geometry": { "type": "Point", "coordinates": [ 35.18187, 31.88253 ] } },
{ "type": "Feature", "properties": { "object_id": 32, "name_en": "Nahal Oz", "name_fr": "Nahal Oz", "name_es": "Nahal Oz", "name_he": "נחל עוז", "name_ar": "ناحل عوز", "type_en": "Last Checkpoint before Israel", "type_he": "מחסום אחרון לפני הכניסה לישראל", "type_ar": "آخر حاجز قبل الدخول لإسرائيل", "staffing_en": "Closed", "staffing_he": "סגור", "staffing_ar": "مغلق", "district_en": "Gaza Strip", "district_he": "רצועת עזה", "district_ar": "רצועת עזה" }, "geometry": { "type": "Point", "coordinates": [ 34.4924, 31.48546 ] } },
{ "type": "Feature", "properties": { "object_id": 33, "name_en": "Ni’lin \/ Modi’in Illit", "name_fr": "Ni’lin \/ Modi’in Illit", "name_es": "Nilin \/ Modiiin Illit", "name_he": "ניעלין \/ מודיעין עלית", "name_ar": "نعلين \/  موديعين عيليت", "type_en": "Last Checkpoint before Israel", "type_he": "מחסום אחרון לפני הכניסה לישראל", "type_ar": "آخر حاجز قبل الدخول لإسرائيل", "staffing_en": "Permanently staffed", "staffing_he": "מאויש בקביעות", "staffing_ar": "معزز بصورة دائمة", "district_en": "Ramallah and al-Bira", "district_he": "רמאללה", "district_ar": "رام الله والبيرة" }, "geometry": { "type": "Point", "coordinates": [ 35.03317, 31.94103 ] } },
{ "type": "Feature", "properties": { "object_id": 35, "name_en": "Sufa", "name_fr": "Sufa", "name_es": "Sufa", "name_he": "סופה", "name_ar": "صوفا", "type_en": "Last Checkpoint before Israel", "type_he": "מחסום אחרון לפני הכניסה לישראל", "type_ar": "آخر حاجز قبل الدخول لإسرائيل", "staffing_en": "Closed", "staffing_he": "סגור", "staffing_ar": "مغلق", "district_en": "Gaza Strip", "district_he": "רצועת עזה", "district_ar": "רצועת עזה" }, "geometry": { "type": "Point", "coordinates": [ 34.32757, 31.25784 ] } },
{ "type": "Feature", "properties": { "object_id": 36, "name_en": "Ofer - Jerusalem", "name_fr": "Ofer - Jérusalem", "name_es": "Ofer - Jerusalén", "name_he": "עופר - ירושלים", "name_ar": "عوفر- القدس", "type_en": "Last Checkpoint before Israel", "type_he": "מחסום אחרון לפני הכניסה לישראל", "type_ar": "آخر حاجز قبل الدخول لإسرائيل", "staffing_en": "Permanently staffed", "staffing_he": "מאויש בקביעות", "staffing_ar": "معزز بصورة دائمة", "district_en": "Ramallah and al-Bira", "district_he": "רמאללה", "district_ar": "رام الله والبيرة" }, "geometry": { "type": "Point", "coordinates": [ 35.16797, 31.87343 ] } },
{ "type": "Feature", "properties": { "object_id": 37, "name_en": "Ein Gedi", "name_fr": "Ein Gedi", "name_es": "Ein Gedi", "name_he": "עין גדי", "name_ar": "عين جدي", "type_en": "Last Checkpoint before Israel", "type_he": "מחסום אחרון לפני הכניסה לישראל", "type_ar": "آخر حاجز قبل الدخول لإسرائيل", "staffing_en": "Permanently staffed", "staffing_he": "מאויש בקביעות", "staffing_ar": "معزز بصورة دائمة", "district_en": "Jericho", "district_he": "יריחו", "district_ar": "اريحا" }, "geometry": { "type": "Point", "coordinates": [ 35.40697, 31.58143 ] } },
{ "type": "Feature", "properties": { "object_id": 38, "name_en": "Qalandia", "name_fr": "Qalandia", "name_es": "Kalandia", "name_he": "קלנדיה", "name_ar": "قلنديا", "type_en": "Last Checkpoint before Israel", "type_he": "מחסום אחרון לפני הכניסה לישראל", "type_ar": "آخر حاجز قبل الدخول لإسرائيل", "staffing_en": "Permanently staffed", "staffing_he": "מאויש בקביעות", "staffing_ar": "معزز بصورة دائمة", "district_en": "Ramallah and al-Bira", "district_he": "רמאללה", "district_ar": "رام الله والبيرة" }, "geometry": { "type": "Point", "coordinates": [ 35.22747, 31.86183 ] } },
{ "type": "Feature", "properties": { "object_id": 39, "name_en": "Qalqiliyah DCO \/ Eyal", "name_fr": "DCO de Qalqiliyah \/ Eyal", "name_es": "Kalkilia DCO \/ Eyal", "name_he": "קלקיליה D.C.O\/ אייל", "name_ar": "قلقيلية D.C.O \/ايال", "type_en": "Last Checkpoint before Israel", "type_he": "מחסום אחרון לפני הכניסה לישראל", "type_ar": "آخر حاجز قبل الدخول لإسرائيل", "staffing_en": "Permanently staffed", "staffing_he": "מאויש בקביעות", "staffing_ar": "معزز بصورة دائمة", "district_en": "Qalqiliya", "district_he": "קלקיליה", "district_ar": "قلقيلية" }, "geometry": { "type": "Point", "coordinates": [ 34.97157, 32.19993 ] } },
{ "type": "Feature", "properties": { "object_id": 40, "name_en": "Karni", "name_fr": "Karni", "name_es": "Karni", "name_he": "קרני", "name_ar": "كارني", "type_en": "Last Checkpoint before Israel", "type_he": "מחסום אחרון לפני הכניסה לישראל", "type_ar": "آخر حاجز قبل الدخول لإسرائيل", "staffing_en": "Closed", "staffing_he": "סגור", "staffing_ar": "مغلق", "district_en": "Gaza Strip", "district_he": "רצועת עזה", "district_ar": "רצועת עזה" }, "geometry": { "type": "Point", "coordinates": [ 34.48382, 31.47878 ] } },
{ "type": "Feature", "properties": { "object_id": 41, "name_en": "Rantis \/ Ofarim", "name_fr": "Rantis \/ Ofarim", "name_es": "Rantis \/ Ofarim", "name_he": "רנתיס \/ עופרים", "name_ar": "رنتيس \/ عوفريم", "type_en": "Last Checkpoint before Israel", "type_he": "מחסום אחרון לפני הכניסה לישראל", "type_ar": "آخر حاجز قبل الدخول لإسرائيل", "staffing_en": "Permanently staffed", "staffing_he": "מאויש בקביעות", "staffing_ar": "معزز بصورة دائمة", "district_en": "Ramallah and al-Bira", "district_he": "רמאללה", "district_ar": "رام الله والبيرة" }, "geometry": { "type": "Point", "coordinates": [ 35.00677, 32.04013 ] } },
{ "type": "Feature", "properties": { "object_id": 42, "name_en": "Shani", "name_fr": "Shani", "name_es": "Shani", "name_he": "שני", "name_ar": "شني", "type_en": "Last Checkpoint before Israel", "type_he": "מחסום אחרון לפני הכניסה לישראל", "type_ar": "آخر حاجز قبل الدخول لإسرائيل", "staffing_en": "Permanently staffed", "staffing_he": "מאויש בקביעות", "staffing_ar": "معزز بصورة دائمة", "district_en": "Hebron", "district_he": "חברון", "district_ar": "الخليل" }, "geometry": { "type": "Point", "coordinates": [ 35.05846, 31.35754 ] } },
{ "type": "Feature", "properties": { "object_id": 43, "name_en": "Tarqumya", "name_fr": "Tarqumya", "name_es": "Tarkumya", "name_he": "תרקומיא", "name_ar": "ترقوميا", "type_en": "Last Checkpoint before Israel", "type_he": "מחסום אחרון לפני הכניסה לישראל", "type_ar": "آخر حاجز قبل الدخول لإسرائيل", "staffing_en": "Permanently staffed\/ goods", "staffing_he": "מאויש בקביעות \/ סחורות", "staffing_ar": "معزز بصورة دائمة \/ بضائع", "district_en": "Hebron", "district_he": "חברון", "district_ar": "الخليل" }, "geometry": { "type": "Point", "coordinates": [ 34.96366, 31.59134 ] } },
{ "type": "Feature", "properties": { "object_id": 44, "name_en": "a-Tur", "name_fr": "a-Tur", "name_es": "a-Tur", "name_he": "א-טור", "name_ar": "الطور", "type_en": "Internal Checkpoint", "type_he": "מחסום פנימי", "type_ar": "حاجز داخلي", "staffing_en": "Infrequently staffed", "staffing_he": "מאויש חלקית", "staffing_ar": "معزز في أحيان متباعدة", "district_en": "Nablus", "district_he": "שכם", "district_ar": "نابلس" }, "geometry": { "type": "Point", "coordinates": [ 35.26737, 32.20563 ] } },
{ "type": "Feature", "properties": { "object_id": 45, "name_en": "a-Taybah\/Rimmonim", "name_fr": "a-Taybah\/Rimmonim", "name_es": "a-Taybah\/Rimmonim", "name_he": "א-טייבה\/רימונים", "name_ar": "الطيبة\/ريمونيم", "type_en": "Internal Checkpoint", "type_he": "מחסום פנימי", "type_ar": "حاجز داخلي", "staffing_en": "Infrequently staffed", "staffing_he": "מאויש חלקית", "staffing_ar": "معزز في أحيان متباعدة", "district_en": "Ramallah and al-Bira", "district_he": "רמאללה", "district_ar": "رام الله والبيرة" }, "geometry": { "type": "Point", "coordinates": [ 35.31817, 31.92623 ] } },
{ "type": "Feature", "properties": { "object_id": 46, "name_en": "Idhna", "name_fr": "Idhna", "name_es": "Idhna", "name_he": "איד'נא", "name_ar": "إذنا", "type_en": "Internal Checkpoint", "type_he": "מחסום פנימי", "type_ar": "حاجز داخلي", "staffing_en": "Infrequently staffed", "staffing_he": "מאויש חלקית", "staffing_ar": "معزز في أحيان متباعدة", "district_en": "Hebron", "district_he": "חברון", "district_ar": "الخليل" }, "geometry": { "type": "Point", "coordinates": [ 34.98206, 31.57314 ] } },
{ "type": "Feature", "properties": { "object_id": 47, "name_en": "Al-Hamra", "name_fr": "Al-Hamra", "name_es": "Al-Hamra", "name_he": "אל-חמרא", "name_ar": "الحمرا", "type_en": "Internal Checkpoint", "type_he": "מחסום פנימי", "type_ar": "حاجز داخلي", "staffing_en": "Permanently staffed", "staffing_he": "מאויש בקביעות", "staffing_ar": "معزز بصورة دائمة", "district_en": "Jericho", "district_he": "יריחו", "district_ar": "اريحا" }, "geometry": { "type": "Point", "coordinates": [ 35.44917, 32.20653 ] } },
{ "type": "Feature", "properties": { "object_id": 48, "name_en": "al-'Arub", "name_fr": "al-'Arub", "name_es": "al-Arub", "name_he": "אל-ערוב", "name_ar": "العروب", "type_en": "Internal Checkpoint", "type_he": "מחסום פנימי", "type_ar": "حاجز داخلي", "staffing_en": "Infrequently staffed", "staffing_he": "מאויש חלקית", "staffing_ar": "معزز في أحيان متباعدة", "district_en": "Hebron", "district_he": "חברון", "district_ar": "الخليل" }, "geometry": { "type": "Point", "coordinates": [ 35.13297, 31.62564 ] } },
{ "type": "Feature", "properties": { "object_id": 49, "name_en": "al-Fawar", "name_fr": "al-Fawar", "name_es": "al-Fawar", "name_he": "אל-פוואר", "name_ar": "الفوار", "type_en": "Internal Checkpoint", "type_he": "מחסום פנימי", "type_ar": "حاجز داخلي", "staffing_en": "Infrequently staffed", "staffing_he": "מאויש חלקית", "staffing_ar": "معزز في أحيان متباعدة", "district_en": "Hebron", "district_he": "חברון", "district_ar": "الخليل" }, "geometry": { "type": "Point", "coordinates": [ 35.05596, 31.48594 ] } },
{ "type": "Feature", "properties": { "object_id": 50, "name_en": "a-Nabi Saleh", "name_fr": "a-Nabi Saleh", "name_es": "a-Nabi Saleh", "name_he": "א-נבי סאלח", "name_ar": "النبي صالح", "type_en": "Internal Checkpoint", "type_he": "מחסום פנימי", "type_ar": "حاجز داخلي", "staffing_en": "Infrequently staffed", "staffing_he": "מאויש חלקית", "staffing_ar": "معزز في أحيان متباعدة", "district_en": "Ramallah and al-Bira", "district_he": "רמאללה", "district_ar": "رام الله والبيرة" }, "geometry": { "type": "Point", "coordinates": [ 35.12737, 32.01383 ] } },
{ "type": "Feature", "properties": { "object_id": 51, "name_en": "Efrat \/ Wadi Rahal", "name_fr": "Efrat \/ Wadi Rahal", "name_es": "Efrat \/ Wadi Rahal", "name_he": "אפרת \/ ואדי רחאל", "name_ar": "إفرات\/وادي رحال", "type_en": "Internal Checkpoint", "type_he": "מחסום פנימי", "type_ar": "حاجز داخلي", "staffing_en": "Permanently staffed", "staffing_he": "מאויש בקביעות", "staffing_ar": "معزز بصورة دائمة", "district_en": "Bethlehem", "district_he": "בית לחם", "district_ar": "بيت لحم" }, "geometry": { "type": "Point", "coordinates": [ 35.16857, 31.68163 ] } },
{ "type": "Feature", "properties": { "object_id": 52, "name_en": "Ari'el-Salfit", "name_fr": "Ari'el-Salfit", "name_es": "Ariel-Salfit", "name_he": "אריאל \/ סלפית", "name_ar": "أريئيل \/ سلفيت", "type_en": "Internal Checkpoint", "type_he": "מחסום פנימי", "type_ar": "حاجز داخلي", "staffing_en": "Permanently staffed", "staffing_he": "מאויש בקביעות", "staffing_ar": "معزز بصورة دائمة", "district_en": "Salfit", "district_he": "סלפית", "district_ar": "سلفيت" }, "geometry": { "type": "Point", "coordinates": [ 35.16457, 32.10393 ] } },
{ "type": "Feature", "properties": { "object_id": 53, "name_en": "Bidu\/Beit Iksa (Ras Bidu)", "name_fr": "Bidu\/Beit Iksa (Ras Bidu)", "name_es": "Bidu\/Beit Iksa (Ras Bidu)", "name_he": "בידו\/בית איכסא (ראס בידו)", "name_ar": "بدو\/بيت إكسا (راس بدو)", "type_en": "Internal Checkpoint", "type_he": "מחסום פנימי", "type_ar": "حاجز داخلي", "staffing_en": "Permanently staffed", "staffing_he": "מאויש בקביעות", "staffing_ar": "معزز بصورة دائمة", "district_en": "East Jerusalem", "district_he": "מזרח ירושלים", "district_ar": "القدس الشرقية" }, "geometry": { "type": "Point", "coordinates": [ 35.15957, 31.83143 ] } },
{ "type": "Feature", "properties": { "object_id": 54, "name_en": "Beit Ummar", "name_fr": "Beit Ummar", "name_es": "Beit Ummar", "name_he": "בית אומר", "name_ar": "بيت أمر", "type_en": "Internal Checkpoint", "type_he": "מחסום פנימי", "type_ar": "حاجز داخلي", "staffing_en": "Infrequently staffed", "staffing_he": "מאויש חלקית", "staffing_ar": "معزز في أحيان متباعدة", "district_en": "Hebron", "district_he": "חברון", "district_ar": "الخليل" }, "geometry": { "type": "Point", "coordinates": [ 35.11627, 31.61844 ] } },
{ "type": "Feature", "properties": { "object_id": 55, "name_en": "Beit El DCO", "name_fr": "DCO de Beit El", "name_es": "Beit El DCO", "name_he": "בית אל DCO", "name_ar": "حاجز بيت إيل  DCO", "type_en": "Internal Checkpoint", "type_he": "מחסום פנימי", "type_ar": "حاجز داخلي", "staffing_en": "Permanently staffed", "staffing_he": "מאויש בקביעות", "staffing_ar": "معزز بصورة دائمة", "district_en": "Ramallah and al-Bira", "district_he": "רמאללה", "district_ar": "رام الله والبيرة" }, "geometry": { "type": "Point", "coordinates": [ 35.22287, 31.92223 ] } },
{ "type": "Feature", "properties": { "object_id": 56, "name_en": "Beit Jala DCO", "name_fr": "DCO de Beit Jala", "name_es": "Beit Jala DCO", "name_he": "בית ג'אלה DCO", "name_ar": "بيت جالا DCO", "type_en": "Internal Checkpoint", "type_he": "מחסום פנימי", "type_ar": "حاجز داخلي", "staffing_en": "Infrequently staffed", "staffing_he": "מאויש חלקית", "staffing_ar": "معزز في أحيان متباعدة", "district_en": "Bethlehem", "district_he": "בית לחם", "district_ar": "بيت لحم" }, "geometry": { "type": "Point", "coordinates": [ 35.17677, 31.71633 ] } },
{ "type": "Feature", "properties": { "object_id": 57, "name_en": "Beit Sira", "name_fr": "Beit Sira", "name_es": "Beit Sira", "name_he": "בית סירא", "name_ar": "بيت سيرا", "type_en": "Internal Checkpoint", "type_he": "מחסום פנימי", "type_ar": "حاجز داخلي", "staffing_en": "Permanently staffed", "staffing_he": "מאויש בקביעות", "staffing_ar": "معزز بصورة دائمة", "district_en": "", "district_he": "רמאללה", "district_ar": "رام الله والبيرة" }, "geometry": { "type": "Point", "coordinates": [ 35.04237, 31.89793 ] } },
{ "type": "Feature", "properties": { "object_id": 58, "name_en": "Beit 'Awwa", "name_fr": "Beit 'Awwa", "name_es": "Beit Awa", "name_he": "בית עווא", "name_ar": "بيت عوا", "type_en": "Internal Checkpoint", "type_he": "מחסום פנימי", "type_ar": "حاجز داخلي", "staffing_en": "Infrequently staffed", "staffing_he": "מאויש חלקית", "staffing_ar": "معزز في أحيان متباعدة", "district_en": "Hebron", "district_he": "חברון", "district_ar": "الخليل" }, "geometry": { "type": "Point", "coordinates": [ 34.96126, 31.49714 ] } },
{ "type": "Feature", "properties": { "object_id": 59, "name_en": "Beit 'Ur al-Fauqa", "name_fr": "Beit 'Ur al-Fauqa", "name_es": "Beit Ur al-Fauqa", "name_he": "בית עור אל-פוקא", "name_ar": "بيت عور الفوقا", "type_en": "Internal Checkpoint", "type_he": "מחסום פנימי", "type_ar": "حاجز داخلي", "staffing_en": "Permanently staffed", "staffing_he": "מאויש בקביעות", "staffing_ar": "معزز بصورة دائمة", "district_en": "Ramallah and al-Bira", "district_he": "רמאללה", "district_ar": "رام الله والبيرة" }, "geometry": { "type": "Point", "coordinates": [ 35.10427, 31.88653 ] } },
{ "type": "Feature", "properties": { "object_id": 60, "name_en": "Beit Furik", "name_fr": "Beit Furik", "name_es": "Beit Furik", "name_he": "בית פוריכ", "name_ar": "بيت فوريك", "type_en": "Internal Checkpoint", "type_he": "מחסום פנימי", "type_ar": "حاجز داخلي", "staffing_en": "Infrequently staffed", "staffing_he": "מאויש חלקית", "staffing_ar": "معزز في أحيان متباعدة", "district_en": "Nablus", "district_he": "שכם", "district_ar": "نابلس" }, "geometry": { "type": "Point", "coordinates": [ 35.31797, 32.19873 ] } },
{ "type": "Feature", "properties": { "object_id": 61, "name_en": "Jaba’\/ a-Ram", "name_fr": "Jaba’\/ a-Ram", "name_es": "Jaba\/ a-Ram", "name_he": "ג'בע \/ א-ראם", "name_ar": "جبع \/ الرام", "type_en": "Internal Checkpoint", "type_he": "מחסום פנימי", "type_ar": "حاجز داخلي", "staffing_en": "Infrequently staffed", "staffing_he": "מאויש חלקית", "staffing_ar": "معزز في أحيان متباعدة", "district_en": "Ramallah and al-Bira", "district_he": "רמאללה", "district_ar": "رام الله والبيرة" }, "geometry": { "type": "Point", "coordinates": [ 35.25657, 31.85403 ] } },
{ "type": "Feature", "properties": { "object_id": 62, "name_en": "Giv'at Ze’ev \/ al-Jib", "name_fr": "Giv'at Ze’ev \/ al-Jib", "name_es": "Givat Zeev \/ al-Jib", "name_he": "גבעת זאב \/ אל-ג'יב", "name_ar": "جفعات زئيف\/الجيب", "type_en": "Internal Checkpoint", "type_he": "מחסום פנימי", "type_ar": "حاجز داخلي", "staffing_en": "Permanently staffed", "staffing_he": "מאויש בקביעות", "staffing_ar": "معزز بصورة دائمة", "district_en": "East Jerusalem", "district_he": "מזרח ירושלים", "district_ar": "القدس الشرقية" }, "geometry": { "type": "Point", "coordinates": [ 35.17607, 31.85843 ] } },
{ "type": "Feature", "properties": { "object_id": 63, "name_en": "Gush Etzion", "name_fr": "Gush Etzion", "name_es": "Gush Etzion", "name_he": "גוש עציון", "name_ar": "جوش عصيون", "type_en": "Internal Checkpoint", "type_he": "מחסום פנימי", "type_ar": "حاجز داخلي", "staffing_en": "Infrequently staffed", "staffing_he": "מאויש חלקית", "staffing_ar": "معزز في أحيان متباعدة", "district_en": "Bethlehem", "district_he": "בית לחם", "district_ar": "بيت لحم" }, "geometry": { "type": "Point", "coordinates": [ 35.13197, 31.64594 ] } },
{ "type": "Feature", "properties": { "object_id": 64, "name_en": "Deir Ballut", "name_fr": "Deir Ballut", "name_es": "Deir Ballut", "name_he": "דיר בלוט", "name_ar": "دير بلوط", "type_en": "Internal Checkpoint", "type_he": "מחסום פנימי", "type_ar": "حاجز داخلي", "staffing_en": "Infrequently staffed", "staffing_he": "מאויש חלקית", "staffing_ar": "معزز في أحيان متباعدة", "district_en": "Salfit", "district_he": "סלפית", "district_ar": "سلفيت" }, "geometry": { "type": "Point", "coordinates": [ 35.04247, 32.06293 ] } },
{ "type": "Feature", "properties": { "object_id": 65, "name_en": "Deir Sharaf\/New Beit Iba", "name_fr": "Deir Sharaf\/New Beit Iba", "name_es": "Deir Sharaf\/Nueva Beit Iba", "name_he": "דיר שרף\/בית איבא החדש", "name_ar": "دير شرف\/بيت إيبا الجديد", "type_en": "Internal Checkpoint", "type_he": "מחסום פנימי", "type_ar": "حاجز داخلي", "staffing_en": "Infrequently staffed", "staffing_he": "מאויש חלקית", "staffing_ar": "معزز في أحيان متباعدة", "district_en": "Nablus", "district_he": "שכם", "district_ar": "نابلس" }, "geometry": { "type": "Point", "coordinates": [ 35.17527, 32.26143 ] } },
{ "type": "Feature", "properties": { "object_id": 66, "name_en": "Entrance to Qalqiliyah", "name_fr": "Entrée de Qalqiliyah", "name_es": "Entrada a Kalkilia", "name_he": "הכניסה לקלקיליה", "name_ar": "مدخل قلقيلية", "type_en": "Internal Checkpoint", "type_he": "מחסום פנימי", "type_ar": "حاجز داخلي", "staffing_en": "Infrequently staffed", "staffing_he": "מאויש חלקית", "staffing_ar": "معزز في أحيان متباعدة", "district_en": "Qalqiliya", "district_he": "קלקיליה", "district_ar": "قلقيلية" }, "geometry": { "type": "Point", "coordinates": [ 34.99647, 32.18813 ] } },
{ "type": "Feature", "properties": { "object_id": 67, "name_en": "Huwarah", "name_fr": "Huwarah", "name_es": "Huwarah", "name_he": "חווארה", "name_ar": "حوارة", "type_en": "Internal Checkpoint", "type_he": "מחסום פנימי", "type_ar": "حاجز داخلي", "staffing_en": "Infrequently staffed", "staffing_he": "מאויש חלקית", "staffing_ar": "معزز في أحيان متباعدة", "district_en": "Nablus", "district_he": "שכם", "district_ar": "نابلس" }, "geometry": { "type": "Point", "coordinates": [ 35.27337, 32.17663 ] } },
{ "type": "Feature", "properties": { "object_id": 68, "name_en": "Halhul-Hebron\/Route 35", "name_fr": "Halhul-Hébron\/Route 35", "name_es": "Halhul-Hebron\/Ruta 35", "name_he": "חלחול-חברון\/כביש 35", "name_ar": "حلحول- الخليل\/ شارع 35", "type_en": "Internal Checkpoint", "type_he": "מחסום פנימי", "type_ar": "حاجز داخلي", "staffing_en": "Infrequently staffed", "staffing_he": "מאויש חלקית", "staffing_ar": "معزز في أحيان متباعدة", "district_en": "Hebron", "district_he": "חברון", "district_ar": "الخليل" }, "geometry": { "type": "Point", "coordinates": [ 35.10056, 31.56284 ] } },
{ "type": "Feature", "properties": { "object_id": 69, "name_en": "Yitav\/al-A'ujah", "name_fr": "Yitav\/al-A'ujah", "name_es": "Yitav\/al-Aujah", "name_he": "ייט\"ב\/אל-עוג'ה", "name_ar": "ييطف\/العوجة", "type_en": "Internal Checkpoint", "type_he": "מחסום פנימי", "type_ar": "حاجز داخلي", "staffing_en": "Infrequently staffed", "staffing_he": "מאויש חלקית", "staffing_ar": "معزز في أحيان متباعدة", "district_en": "Jericho", "district_he": "יריחו", "district_ar": "اريحا" }, "geometry": { "type": "Point", "coordinates": [ 35.41587, 31.92173 ] } },
{ "type": "Feature", "properties": { "object_id": 70, "name_en": "Ya’bad\/Mevo Dotan", "name_fr": "Ya’bad\/Mevo Dotan", "name_es": "Yabad\/Mevo Dotan", "name_he": "יעבד\/מבוא דותן", "name_ar": "يعبد\/ ميفو دوتان", "type_en": "Internal Checkpoint", "type_he": "מחסום פנימי", "type_ar": "حاجز داخلي", "staffing_en": "Permanently staffed", "staffing_he": "מאויש בקביעות", "staffing_ar": "معزز بصورة دائمة", "district_en": "Jenin", "district_he": "ג'נין", "district_ar": "جنين" }, "geometry": { "type": "Point", "coordinates": [ 35.17917, 32.43263 ] } },
{ "type": "Feature", "properties": { "object_id": 71, "name_en": "Yizhar-Jit", "name_fr": "Yizhar-Jit", "name_es": "Yizhar-Jit", "name_he": "יצהר - ג'ית", "name_ar": "يتسهار- جيت", "type_en": "Internal Checkpoint", "type_he": "מחסום פנימי", "type_ar": "حاجز داخلي", "staffing_en": "Infrequently staffed", "staffing_he": "מאויש חלקית", "staffing_ar": "معزز في أحيان متباعدة", "district_en": "Nablus", "district_he": "שכם", "district_ar": "نابلس" }, "geometry": { "type": "Point", "coordinates": [ 35.26127, 32.16403 ] } },
{ "type": "Feature", "properties": { "object_id": 72, "name_en": "Yizhar-Huwara", "name_fr": "Yizhar-Huwara", "name_es": "Yizhar-Huwara", "name_he": "יצהר - חווארה", "name_ar": "يتسهار- حوارة", "type_en": "Internal Checkpoint", "type_he": "מחסום פנימי", "type_ar": "حاجز داخلي", "staffing_en": "Infrequently staffed", "staffing_he": "מאויש חלקית", "staffing_ar": "معزز في أحيان متباعدة", "district_en": "Nablus", "district_he": "שכם", "district_ar": "نابلس" }, "geometry": { "type": "Point", "coordinates": [ 35.26197, 32.16293 ] } },
{ "type": "Feature", "properties": { "object_id": 73, "name_en": "Jericho East (toward Allenby Bridge)", "name_fr": "Jeéricho Est (en direction du Pont Allenby)", "name_es": "Jericó Este (hacia el puente de Allenby)", "name_he": "יריחו מזרח (לכיוון גשר אלנבי)", "name_ar": "أريحا شرق (تجاه جسر اللنبي)", "type_en": "Internal Checkpoint", "type_he": "מחסום פנימי", "type_ar": "حاجز داخلي", "staffing_en": "Permanently staffed", "staffing_he": "מאויש בקביעות", "staffing_ar": "معزز بصورة دائمة", "district_en": "Jericho", "district_he": "יריחו", "district_ar": "اريحا" }, "geometry": { "type": "Point", "coordinates": [ 35.50667, 31.86753 ] } },
{ "type": "Feature", "properties": { "object_id": 74, "name_en": "Ma’ale Efrayim\/Gittit", "name_fr": "Ma’ale Efrayim\/Gittit", "name_es": "Maalé Efraim\/Gittit", "name_he": "מעלה אפרים\/ גיתית", "name_ar": "معاليه إفرايم\/جيتيت", "type_en": "Internal Checkpoint", "type_he": "מחסום פנימי", "type_ar": "حاجز داخلي", "staffing_en": "Infrequently staffed", "staffing_he": "מאויש חלקית", "staffing_ar": "معزز في أحيان متباعدة", "district_en": "Nablus", "district_he": "שכם", "district_ar": "نابلس" }, "geometry": { "type": "Point", "coordinates": [ 35.38057, 32.08973 ] } },
{ "type": "Feature", "properties": { "object_id": 75, "name_en": "Nabi Yunis\/Halhul-Sa’ir", "name_fr": "Nabi Yunis\/Halhul-Sa’ir", "name_es": "Nabi Yunis\/Halhul-Sair", "name_he": "נבי יונס\/חלחול-סעיר", "name_ar": "نبي يونس\/ حلحول-سعير", "type_en": "Internal Checkpoint", "type_he": "מחסום פנימי", "type_ar": "حاجز داخلي", "staffing_en": "Infrequently staffed", "staffing_he": "מאויש חלקית", "staffing_ar": "معزز في أحيان متباعدة", "district_en": "Hebron", "district_he": "חברון", "district_ar": "الخليل" }, "geometry": { "type": "Point", "coordinates": [ 35.12086, 31.58514 ] } },
{ "type": "Feature", "properties": { "object_id": 76, "name_en": "Nashash\/ Efrat North", "name_fr": "Nashash\/ Efrat Nord", "name_es": "Nashash\/ Efrat Norte", "name_he": "נשאש \/ אפרת צפון", "name_ar": "نشاش\/إفرات شمال", "type_en": "Internal Checkpoint", "type_he": "מחסום פנימי", "type_ar": "حاجز داخلي", "staffing_en": "Infrequently staffed", "staffing_he": "מאויש חלקית", "staffing_ar": "معزز في أحيان متباعدة", "district_en": "Bethlehem", "district_he": "בית לחם", "district_ar": "بيت لحم" }, "geometry": { "type": "Point", "coordinates": [ 35.16177, 31.68743 ] } },
{ "type": "Feature", "properties": { "object_id": 77, "name_en": "Atarah", "name_fr": "Atarah", "name_es": "Atarah", "name_he": "עטארה", "name_ar": "عطارة", "type_en": "Internal Checkpoint", "type_he": "מחסום פנימי", "type_ar": "حاجز داخلي", "staffing_en": "Infrequently staffed", "staffing_he": "מאויש חלקית", "staffing_ar": "معزز في أحيان متباعدة", "district_en": "Ramallah and al-Bira", "district_he": "רמאללה", "district_ar": "رام الله والبيرة" }, "geometry": { "type": "Point", "coordinates": [ 35.20117, 31.98343 ] } },
{ "type": "Feature", "properties": { "object_id": 78, "name_en": "‘Anabta\/'Einav (eastern entrance)", "name_fr": "‘Anabta\/'Einav (entrée est)", "name_es": "Anabta\/Einav (entrada oriental)", "name_he": "ענבתה \/ עינב (כניסה מזרחית)", "name_ar": "عنبتا\/عيناف (المدخل الشرقي)", "type_en": "Internal Checkpoint", "type_he": "מחסום פנימי", "type_ar": "حاجز داخلي", "staffing_en": "Infrequently staffed", "staffing_he": "מאויש חלקית", "staffing_ar": "معزز في أحيان متباعدة", "district_en": "Tulkarm", "district_he": "טול-כרם", "district_ar": "طولكرم" }, "geometry": { "type": "Point", "coordinates": [ 35.13667, 32.28903 ] } },
{ "type": "Feature", "properties": { "object_id": 79, "name_en": "Zufin", "name_fr": "Zufin", "name_es": "Zufin", "name_he": "צופין", "name_ar": "صوفين", "type_en": "Internal Checkpoint", "type_he": "מחסום פנימי", "type_ar": "حاجز داخلي", "staffing_en": "Permanently staffed", "staffing_he": "מאויש בקביעות", "staffing_ar": "معزز بصورة دائمة", "district_en": "Qalqiliya", "district_he": "קלקיליה", "district_ar": "قلقيلية" }, "geometry": { "type": "Point", "coordinates": [ 35.00047, 32.19293 ] } },
{ "type": "Feature", "properties": { "object_id": 80, "name_en": "Container\/Qidron crossing\/Wadi a-Nar", "name_fr": "Container\/Passage Qidron\/Wadi a-Nar", "name_es": "Contenedor\/Paso Kidron\/Wadi a-Nar", "name_he": "קונטיינר\/ ואדי א-נאר", "name_ar": "الكونتينر\/\"معبر كدرون\" \/وادي النار", "type_en": "Internal Checkpoint", "type_he": "מחסום פנימי", "type_ar": "حاجز داخلي", "staffing_en": "Permanently staffed", "staffing_he": "מאויש בקביעות", "staffing_ar": "معزز بصورة دائمة", "district_en": "Bethlehem", "district_he": "בית לחם", "district_ar": "بيت لحم" }, "geometry": { "type": "Point", "coordinates": [ 35.28937, 31.74233 ] } },
{ "type": "Feature", "properties": { "object_id": 81, "name_en": "Shavei Shomron\/ Sabastiya", "name_fr": "Shavei Shomron\/ Sabastiya", "name_es": "Shavei Shomron\/ Sabastia", "name_he": "שבי שומרון \/ סבסטיה", "name_ar": "شفي شومرون \/ سبسطية", "type_en": "Internal Checkpoint", "type_he": "מחסום פנימי", "type_ar": "حاجز داخلي", "staffing_en": "Infrequently staffed", "staffing_he": "מאויש חלקית", "staffing_ar": "معزز في أحيان متباعدة", "district_en": "Nablus", "district_he": "שכם", "district_ar": "نابلس" }, "geometry": { "type": "Point", "coordinates": [ 35.18877, 32.26473 ] } },
{ "type": "Feature", "properties": { "object_id": 82, "name_en": "Tayasir\/The Jordan Valley", "name_fr": "Tayasir\/Vallée du Jourdain", "name_es": "Tayasir\/ El Valle del Jordán", "name_he": "תיאסיר \/ הבקעה", "name_ar": "تياسير\/الأغوار", "type_en": "Internal Checkpoint", "type_he": "מחסום פנימי", "type_ar": "حاجز داخلي", "staffing_en": "Permanently staffed", "staffing_he": "מאויש בקביעות", "staffing_ar": "معزز بصورة دائمة", "district_en": "Tubas", "district_he": "טובאס", "district_ar": "طوباس" }, "geometry": { "type": "Point", "coordinates": [ 35.43947, 32.32853 ] } },
{ "type": "Feature", "properties": { "object_id": 83, "name_en": "Tapuah\/Za'tara", "name_fr": "Tapuah\/Za'tara", "name_es": "Tapuah\/Zatara", "name_he": "תפוח \/ זעתרה", "name_ar": "تبواح\/زعترة", "type_en": "Internal Checkpoint", "type_he": "מחסום פנימי", "type_ar": "حاجز داخلي", "staffing_en": "Infrequently staffed", "staffing_he": "מאויש חלקית", "staffing_ar": "معزز في أحيان متباعدة", "district_en": "Nablus", "district_he": "שכם", "district_ar": "نابلس" }, "geometry": { "type": "Point", "coordinates": [ 35.25747, 32.11533 ] } },
{ "type": "Feature", "properties": { "object_id": 84, "name_en": "al-Awqaf \\ Tnuva", "name_fr": "al-Awqaf \\ Tnuva", "name_es": "al-Awqaf \\ Tnuva", "name_he": "אל-אווקאף\/תנובה", "name_ar": "الأوقفاف \/ تنوفا", "type_en": "checkpoint inside Hebron", "type_he": "מחסום פנימי - חברון", "type_ar": "حاجز داخل الخليل", "staffing_en": "Permanently staffed", "staffing_he": "מאויש בקביעות", "staffing_ar": "معزز بصورة دائمة", "district_en": "Hebron", "district_he": "חברון", "district_ar": "الخليل" }, "geometry": { "type": "Point", "coordinates": [ 35.10856, 31.52374 ] } },
{ "type": "Feature", "properties": { "object_id": 85, "name_en": "Beit Hadassah (a-Shuhada)", "name_fr": "Beit Hadassah (a-Shuhada)", "name_es": "Beit Hadassah (a-Shuhada)", "name_he": "בית הדסה (א-שוהדאא)", "name_ar": "بيت هداسا (الشهداء)", "type_en": "checkpoint inside Hebron", "type_he": "מחסום פנימי - חברון", "type_ar": "حاجز داخل الخليل", "staffing_en": "Permanently staffed", "staffing_he": "מאויש בקביעות", "staffing_ar": "معزز بصورة دائمة", "district_en": "Hebron", "district_he": "חברון", "district_ar": "الخليل" }, "geometry": { "type": "Point", "coordinates": [ 35.10416, 31.52604 ] } },
{ "type": "Feature", "properties": { "object_id": 86, "name_en": "The Pharmacy", "name_fr": "La Pharmacie", "name_es": "La Farmacia", "name_he": "בית המרקחת", "name_ar": "الصيدلية", "type_en": "checkpoint inside Hebron", "type_he": "מחסום פנימי - חברון", "type_ar": "حاجز داخل الخليل", "staffing_en": "Permanently staffed", "staffing_he": "מאויש בקביעות", "staffing_ar": "معزز بصورة دائمة", "district_en": "Hebron", "district_he": "חברון", "district_ar": "الخليل" }, "geometry": { "type": "Point", "coordinates": [ 35.10966, 31.52244 ] } },
{ "type": "Feature", "properties": { "object_id": 87, "name_en": "The Soup Kitchen \/ (Shorabah)", "name_fr": "Soupe populaire \/ (Shorabah)", "name_es": "Comedor Social \/ (Shorabah)", "name_he": "בית התמחוי \/שוראבה", "name_ar": "حاجز التكية (الشوربة)", "type_en": "checkpoint inside Hebron", "type_he": "מחסום פנימי - חברון", "type_ar": "حاجز داخل الخليل", "staffing_en": "Permanently staffed", "staffing_he": "מאויש בקביעות", "staffing_ar": "معزز بصورة دائمة", "district_en": "Hebron", "district_he": "חברון", "district_ar": "الخليل" }, "geometry": { "type": "Point", "coordinates": [ 35.11016, 31.52484 ] } },
{ "type": "Feature", "properties": { "object_id": 88, "name_en": "A-Rajabi Building", "name_fr": "Bâtiment A-Rajabi", "name_es": "Edificio A-Rajabi", "name_he": "בניין א-רג'בי", "name_ar": "بناية الرجبي", "type_en": "checkpoint inside Hebron", "type_he": "מחסום פנימי - חברון", "type_ar": "حاجز داخل الخليل", "staffing_en": "Permanently staffed", "staffing_he": "מאויש בקביעות", "staffing_ar": "معزز بصورة دائمة", "district_en": "Hebron", "district_he": "חברון", "district_ar": "الخليل" }, "geometry": { "type": "Point", "coordinates": [ 35.11316, 31.52634 ] } },
{ "type": "Feature", "properties": { "object_id": 89, "name_en": "Giv'at Haavot \/ al-Muhwal", "name_fr": "Giv'at Haavot \/ al-Muhwal", "name_es": "Givat Haavot \/ al-Muhwal", "name_he": "גבעת האבות \/ אל-מוחאול", "name_ar": "حاجز المحول \/ جفعات هأفوت", "type_en": "checkpoint inside Hebron", "type_he": "מחסום פנימי - חברון", "type_ar": "حاجز داخل الخليل", "staffing_en": "Permanently staffed", "staffing_he": "מאויש בקביעות", "staffing_ar": "معزز بصورة دائمة", "district_en": "Hebron", "district_he": "חברון", "district_ar": "الخليل" }, "geometry": { "type": "Point", "coordinates": [ 35.11086, 31.53244 ] } },
{ "type": "Feature", "properties": { "object_id": 90, "name_en": "Ja'bri \/ al-'Ein al-Hamra \/ Generator", "name_fr": "Ja'bri \/ al-'Ein al-Hamra \/ Générateur", "name_es": "Jabri \/ al-Ein al-Hamra \/ Generador", "name_he": "ג'עברי \/ אל-עין אל-חמרא \/ גנרטור", "name_ar": "الجعبري\/ العين الحمرا\/ المحول", "type_en": "checkpoint inside Hebron", "type_he": "מחסום פנימי - חברון", "type_ar": "حاجز داخل الخليل", "staffing_en": "Permanently staffed", "staffing_he": "מאויש בקביעות", "staffing_ar": "معزز بصورة دائمة", "district_en": "Hebron", "district_he": "חברון", "district_ar": "الخليل" }, "geometry": { "type": "Point", "coordinates": [ 35.11026, 31.52564 ] } },
{ "type": "Feature", "properties": { "object_id": 91, "name_en": "Diwan a-Rajabi (160)", "name_fr": "Diwan a-Rajabi (160)", "name_es": "Diwan a-Rajabi (160)", "name_he": "דיוואן א-רג'בי\/מערת המכפלה מערב (2)\/ מחסום 160", "name_ar": "ديوان الرجبي (حاجز 160)", "type_en": "checkpoint inside Hebron", "type_he": "מחסום פנימי - חברון", "type_ar": "حاجز داخل الخليل", "staffing_en": "Permanently staffed", "staffing_he": "מאויש בקביעות", "staffing_ar": "معزز بصورة دائمة", "district_en": "Hebron", "district_he": "חברון", "district_ar": "الخليل" }, "geometry": { "type": "Point", "coordinates": [ 35.11246, 31.52174 ] } },
{ "type": "Feature", "properties": { "object_id": 92, "name_en": "The Bakery \/ Tomb of the Patriarchs \/al-Haram al-Ibrahimi - Southeast", "name_fr": "The Bakery \/ Tombeau des Patriarches \/Mosquée Ibrahimi - Sud-Est", "name_es": "La Panadería \/ Tumba de los Patriarcas \/al-Haram al-Ibrahimi - Sureste", "name_he": "המאפיה \/ מערת המכפלה \/ אל-חרם אל-איבראהימי-דרום-מזרח", "name_ar": "مافيا\/ الحرم الإبراهيمي\/ جنوب - شرق", "type_en": "checkpoint inside Hebron", "type_he": "מחסום פנימי - חברון", "type_ar": "حاجز داخل الخليل", "staffing_en": "Permanently staffed", "staffing_he": "מאויש בקביעות", "staffing_ar": "معزز بصورة دائمة", "district_en": "Hebron", "district_he": "חברון", "district_ar": "الخليل" }, "geometry": { "type": "Point", "coordinates": [ 35.11106, 31.52334 ] } },
{ "type": "Feature", "properties": { "object_id": 93, "name_en": "מגדל ליד בניין קפישה", "name_fr": "Tour près du bâtiment Kapisha", "name_es": "Torre cercana al edificio Kapisha", "name_he": "מגדל ליד בניין קפישה", "name_ar": "برج بالقرب من عمارة قفيشة", "type_en": "checkpoint inside Hebron", "type_he": "מחסום פנימי - חברון", "type_ar": "حاجز داخل الخليل", "staffing_en": "Permanently staffed", "staffing_he": "מאויש בקביעות", "staffing_ar": "معزز بصورة دائمة", "district_en": "Hebron", "district_he": "חברון", "district_ar": "الخليل" }, "geometry": { "type": "Point", "coordinates": [ 35.0982, 31.52501 ] } },
{ "type": "Feature", "properties": { "object_id": 94, "name_en": "The Bench checkpoint", "name_fr": "Poste de contrôle du ''banc''", "name_es": "Puesto de control 'El Banco'", "name_he": "מחסום ספסלים", "name_ar": "حاجز سفسليم", "type_en": "checkpoint inside Hebron", "type_he": "מחסום פנימי - חברון", "type_ar": "حاجز داخل الخليل", "staffing_en": "Permanently staffed", "staffing_he": "מאויש בקביעות", "staffing_ar": "معزز بصورة دائمة", "district_en": "Hebron", "district_he": "חברון", "district_ar": "الخليل" }, "geometry": { "type": "Point", "coordinates": [ 35.11126, 31.52414 ] } },
{ "type": "Feature", "properties": { "object_id": 95, "name_en": "The Bench 2 checkpoint", "name_fr": "Poste de contrôle du ''banc''", "name_es": "Puesto de control 'El Banco 2'", "name_he": "מחסום ספסלים 2", "name_ar": "حاجز سفسليم 2", "type_en": "checkpoint inside Hebron", "type_he": "מחסום פנימי - חברון", "type_ar": "حاجز داخل الخليل", "staffing_en": "Permanently staffed", "staffing_he": "מאויש בקביעות", "staffing_ar": "معزز بصورة دائمة", "district_en": "Hebron", "district_he": "חברון", "district_ar": "الخليل" }, "geometry": { "type": "Point", "coordinates": [ 35.11156, 31.52424 ] } },
{ "type": "Feature", "properties": { "object_id": 96, "name_en": "Abed \/ Tomb of the Patriarchs - South", "name_fr": "Abed \/ Tombeau des Patriarches - Sud", "name_es": "Abed \/Tumba de los Patriarcas - Sur", "name_he": "מחסום עבד \/ מערת המכפלה-דרום", "name_ar": "حاجز عبد\/ الحرم الإبراهيمي - جنوب", "type_en": "checkpoint inside Hebron", "type_he": "מחסום פנימי - חברון", "type_ar": "حاجز داخل الخليل", "staffing_en": "Permanently staffed", "staffing_he": "מאויש בקביעות", "staffing_ar": "معزز بصورة دائمة", "district_en": "Hebron", "district_he": "חברון", "district_ar": "الخليل" }, "geometry": { "type": "Point", "coordinates": [ 35.11016, 31.52384 ] } },
{ "type": "Feature", "properties": { "object_id": 97, "name_en": "Police (Shoter) \/ Hebron DCO \/ Bab a-Zawiya (56)", "name_fr": "Police (Shoter) \/ DCO de Hébron \/ Bab a-Zawiya (56)", "name_es": "Policía (Shoter) \/ DCO Hebrón\/ Bab a-Zawiya (56)", "name_he": "מחסום שוטר \/ DCO \/ באב א-זאוויה (56)", "name_ar": "حاجز شوتير\/ DCO\/ باب الزاوية (56)", "type_en": "checkpoint inside Hebron", "type_he": "מחסום פנימי - חברון", "type_ar": "حاجز داخل الخليل", "staffing_en": "Permanently staffed", "staffing_he": "מאויש בקביעות", "staffing_ar": "معزز بصورة دائمة", "district_en": "Hebron", "district_he": "חברון", "district_ar": "الخليل" }, "geometry": { "type": "Point", "coordinates": [ 35.10256, 31.52654 ] } },
{ "type": "Feature", "properties": { "object_id": 98, "name_en": "Tomb of the Patriarchs - West (1)", "name_fr": "Tombeau des Patriarches - Ouest (1)", "name_es": "La Tumba de los Patriarcas - Oeste (1)", "name_he": "מערת המכפלה-מערב (1)", "name_ar": "الحرم الإبراهيمي- غرب (1)", "type_en": "checkpoint inside Hebron", "type_he": "מחסום פנימי - חברון", "type_ar": "حاجز داخل الخليل", "staffing_en": "Permanently staffed", "staffing_he": "מאויש בקביעות", "staffing_ar": "معزز بصورة دائمة", "district_en": "Hebron", "district_he": "חברון", "district_ar": "الخليل" }, "geometry": { "type": "Point", "coordinates": [ 35.11006, 31.52454 ] } },
{ "type": "Feature", "properties": { "object_id": 99, "name_en": "Worshipers Way\/ Wadi a-Nasarah", "name_fr": "Chemin des fidèles\/ Wadi a-Nasarah", "name_es": "Sendero de los Fieles \/ Wadi a-Nasarah", "name_he": "ציר המתפללים \/ ואדי א-נסארה", "name_ar": "حاجز شارع المصلين\/ وادي النصارى", "type_en": "checkpoint inside Hebron", "type_he": "מחסום פנימי - חברון", "type_ar": "حاجز داخل الخليل", "staffing_en": "Permanently staffed", "staffing_he": "מאויש בקביעות", "staffing_ar": "معزز بصورة دائمة", "district_en": "Hebron", "district_he": "חברון", "district_ar": "الخليل" }, "geometry": { "type": "Point", "coordinates": [ 35.11346, 31.52404 ] } },
{ "type": "Feature", "properties": { "object_id": 100, "name_en": "Tal Rumeidah (Gilbert)", "name_fr": "Tal Rumeidah (Gilbert)", "name_es": "Tel Rumeidah (Gilbert)", "name_he": "תל רומיידה (גילברט)", "name_ar": "تل رميدة (جيلبرت)", "type_en": "checkpoint inside Hebron", "type_he": "מחסום פנימי - חברון", "type_ar": "حاجز داخل الخليل", "staffing_en": "Permanently staffed", "staffing_he": "מאויש בקביעות", "staffing_ar": "معزز بصورة دائمة", "district_en": "Hebron", "district_he": "חברון", "district_ar": "الخليل" }, "geometry": { "type": "Point", "coordinates": [ 35.10106, 31.52564 ] } },
{ "type": "Feature", "properties": { "object_id": 101, "name_en": "Alenbi Bridge", "name_fr": "Allenby Bridge", "name_es": "Puente de Allenby", "name_he": "גשר אלנבי", "name_ar": "جسر اللنبي (الملك حسين)", "type_en": "Border Crossing", "type_he": "מעבר גבול", "type_ar": "نقطة عبور", "staffing_en": "Permanently staffed", "staffing_he": "מאויש בקביעות", "staffing_ar": "معزز بصورة دائمة", "district_en": "Jericho", "district_he": "יריחו", "district_ar": "اريحا" }, "geometry": { "type": "Point", "coordinates": [ 35.5416, 31.8746 ] } },
{ "type": "Feature", "properties": { "object_id": 102, "name_en": "Rafah", "name_fr": "Rafah", "name_es": "Rafah", "name_he": "רפיח", "name_ar": "رفح \/ العودة", "type_en": "Border Crossing", "type_he": "מעבר גבול", "type_ar": "نقطة عبور", "staffing_en": "Permanently staffed", "staffing_he": "מאויש בקביעות", "staffing_ar": "معزز بصورة دائمة", "district_en": "Gaza Strip", "district_he": "רצועת עזה", "district_ar": "רצועת עזה" }, "geometry": { "type": "Point", "coordinates": [ 34.2582, 31.2485 ] } },
{ "type": "Feature", "properties": { "object_id": 103, "name_en": "", "name_he": "ר'יית' - א-סלאימה", "name_ar": "غيث\/ السلايمة", "type_en": "", "type_he": "", "type_ar": "", "staffing_en": "", "staffing_he": "", "staffing_ar": "", "district_en": "", "district_he": "", "district_ar": "" }, "geometry": { "type": "Point", "coordinates": [ 35.1112, 31.5231 ] } },
{ "type": "Feature", "properties": { "object_id": 104, "name_en": "", "name_he": "אל-חריקה", "name_ar": "الحريقة", "type_en": "", "type_he": "", "type_ar": "", "staffing_en": "", "staffing_he": "", "staffing_ar": "", "district_en": "", "district_he": "", "district_ar": "" }, "geometry": { "type": "Point", "coordinates": [ 35.11748, 31.52534 ] } }
]
}
